KAZEOSAT 2              
1 40010U 14033A   26168.83628045  .00000402  00000+0  52357-4 0  9996
2 40010  97.5398   8.4135 0007816 327.0427  33.0301 14.85469665649054
HODOYOSHI-4             
1 40011U 14033B   26168.84095149  .00000204  00000+0  27774-4 0  9996
2 40011  97.5446 353.6315 0022534 306.2554  53.6581 14.88126574648901
DEIMOS-2                
1 40013U 14033D   26168.85303521  .00001061  00000+0  10535-3 0  9993
2 40013  97.5823  43.3185 0001374  50.3909 309.7433 14.93725128637826
HODOYOSHI-3             
1 40015U 14033F   26168.45447043  .00000801  00000+0  98331-4 0  9991
2 40015  97.6417 331.4841 0032668 356.4429   3.6549 14.85389004647666
SPOT 7                  
1 40053U 14034A   26168.86646865  .00000146  00000+0  38973-4 0  9990
2 40053  98.0628 231.3407 0001226  90.7130 269.4212 14.60958238637231
SKYSAT-B                
1 40072U 14037D   26168.79757179  .00001056  00000+0  12173-3 0  9991
2 40072  98.3839 127.7972 0004184 279.2609  80.8132 14.88029291646059
WORLDVIEW-3 (WV-3)      
1 40115U 14048A   26168.84116737  .00000668  00000+0  84488-4 0  9993
2 40115  97.8567 243.6650 0000932  25.1139 335.0121 14.85022893642005
GAOFEN-2                
1 40118U 14049A   26168.85202720 -.00000131  00000+0 -99846-5 0  9998
2 40118  98.0109 233.0583 0006131 224.8950 135.1767 14.80896558639336
YAOGAN-21               
1 40143U 14053A   26168.88373610  .00005553  00000+0  21587-3 0  9997
2 40143  97.1469 209.0891 0009996  91.4975 268.7410 15.26381452655064
YAOGAN-22               
1 40275U 14063A   26168.41384125 -.00000063  00000+0 -44091-4 0  9995
2 40275 100.7724 319.6908 0006345 184.7554 175.3498 13.15531084559848
ASNARO                  
1 40298U 14070A   26168.81785031  .00005221  00000+0  24941-3 0  9993
2 40298  97.3451 244.9150 0005636 163.6950 196.4467 15.19440274644108
YAOGAN-24               
1 40310U 14072A   26168.82769075  .00001072  00000+0  16241-3 0  9995
2 40310  98.1494 306.1710 0012515 261.3832  98.5960 14.76225657623814
CBERS 4                 
1 40336U 14079A   26168.87363596 -.00000082  00000+0 -13771-4 0  9991
2 40336  98.3530 225.6836 0001823  62.5883 297.5489 14.35508554604053
YAOGAN-26               
1 40362U 14088A   26168.84492565  .00010625  00000+0  20938-3 0  9990
2 40362  97.0642 169.0377 0005947  66.3158 293.8717 15.47364417637805
SMAP                    
1 40376U 15003A   26168.83203213  .00000322  00000+0  71420-4 0  9998
2 40376  98.1276 175.9173 0001335  96.9137 263.2217 14.63367079607715
KOMPSAT-3A              
1 40536U 15014A   26168.82138692  .00021494  00000+0  31104-3 0  9992
2 40536  97.6887 160.2301 0056524 172.1870 188.0277 15.54018936621910
SENTINEL-2A             
1 40697U 15028A   26168.84406302 -.00000118  00000+0 -28267-4 0  9992
2 40697  98.5687 243.6863 0001104  89.5991 270.5319 14.30814623573824
GAOFEN-8                
1 40701U 15030A   26168.86448238  .00021031  00000+0  43224-3 0  9991
2 40701  97.6898   2.2755 0008656 184.2349 175.8828 15.45980250611554
CARBONITE 1 (CBNT-1)    
1 40718U 15032D   26168.85696718  .00001870  00000+0  23269-3 0  9994
2 40718  97.6501 346.8949 0013131 295.8017  64.1842 14.83590516589441
YAOGAN-27               
1 40878U 15040A   26168.86479045  .00000156  00000+0  52226-3 0  9994
2 40878 100.1148 155.2181 0007673 208.7835 151.2856 13.16069955517751
GAOFEN-9 01             
1 40894U 15047A   26168.87231353  .00000801  00000+0  10445-3 0  9992
2 40894  97.6275 204.5360 0028435 135.6462 224.7037 14.82885009580296
YAOGAN-28               
1 41026U 15064A   26168.84684951  .00005918  00000+0  22282-3 0  9998
2 41026  97.3080 307.0945 0010676 180.9978 179.1241 15.27428680590789
YAOGAN-29               
1 41038U 15069A   26168.85249208  .00000643  00000+0  85604-4 0  9997
2 41038  98.0021 197.4863 0002621  54.0893 306.0563 14.83087269570728
KENT RIDGE 1            
1 41167U 15077B   26167.90148142  .00003500  00000+0  11248-3 0  9996
2 41167  14.9789 268.1169 0008235 234.6113 125.3439 15.23131198581050
GAOFEN-4                
1 41194U 15083A   26168.84643737 -.00000340  00000+0  00000+0 0  9997
2 41194   0.3594  83.7370 0004384 115.4365 117.3189  1.00268338 38534
JASON-3                 
1 41240U 16002A   26168.77932903 -.00000051  00000+0  44935-4 0  9998
2 41240  66.0403 124.5900 0008509 272.7780  87.2264 12.87628081487324
SENTINEL-3A             
1 41335U 16011A   26168.84772130  .00000092  00000+0  56200-4 0  9997
2 41335  98.6249 236.2219 0001407 101.8413 258.2926 14.26740180538150
ZIYUAN 3-02 (ZY 3-02)   
1 41556U 16033A   26168.84736799  .00004018  00000+0  18148-3 0  9997
2 41556  97.3834 244.6101 0011154 287.0767  72.9247 15.21486506558089
CARTOSAT-2C             
1 41599U 16040A   26168.85091971  .00002424  00000+0  11835-3 0  9994
2 41599  97.4475 228.8208 0009957 128.2011 232.0122 15.19192942553818
SKYSAT-C1               
1 41601U 16040C   26168.60715104  .00007126  00000+0  20341-3 0  9998
2 41601  96.9555 200.3043 0003439  57.2822 302.8754 15.36307258557938
LAPAN-A3                
1 41603U 16040E   26168.84385083  .00002824  00000+0  90496-4 0  9994
2 41603  97.1488 164.9678 0010828  23.6658 336.5081 15.33108174554916
