OBJECT_NAME,OBJECT_ID,EPOCH,MEAN_MOTION,ECCENTRICITY,INCLINATION,RA_OF_ASC_NODE,ARG_OF_PERICENTER,MEAN_ANOMALY,EPHEMERIS_TYPE,CLASSIFICATION_TYPE,NORAD_CAT_ID,ELEMENT_SET_NO,REV_AT_EPOCH,BSTAR,MEAN_MOTION_DOT,MEAN_MOTION_DDOT
KAZEOSAT 2,2014-033A,2026-06-17T20:04:14.630880,14.85469665,.0007816,97.5398,8.4135,327.0427,33.0301,0,U,40010,999,64905,.52357E-4,.402E-5,0
HODOYOSHI-4,2014-033B,2026-06-17T20:10:58.208736,14.88126574,.0022534,97.5446,353.6315,306.2554,53.6581,0,U,40011,999,64890,.27774E-4,.204E-5,0
DEIMOS-2,2014-033D,2026-06-17T20:28:22.242144,14.93725128,.0001374,97.5823,43.3185,50.3909,309.7433,0,U,40013,999,63782,.10535E-3,.1061E-4,0
HODOYOSHI-3,2014-033F,2026-06-17T10:54:26.245152,14.85389004,.00326687,97.6417,331.4841,356.4429,3.6549,0,U,40015,999,64766,.98330662E-4,.801E-5,0
SPOT 7,2014-034A,2026-06-17T20:47:42.891360,14.60958238,.0001226,98.0628,231.3407,90.7130,269.4212,0,U,40053,999,63723,.38973E-4,.146E-5,0
SKYSAT-B,2014-037D,2026-06-17T19:08:30.202656,14.88029291,.0004184,98.3839,127.7972,279.2609,80.8132,0,U,40072,999,64605,.12173E-3,.1056E-4,0
WORLDVIEW-3 (WV-3),2014-048A,2026-06-17T20:11:16.860768,14.85022893,.0000932,97.8567,243.6650,25.1139,335.0121,0,U,40115,999,64200,.84488E-4,.668E-5,0
GAOFEN-2,2014-049A,2026-06-17T20:26:55.150080,14.80896558,.0006131,98.0109,233.0583,224.8950,135.1767,0,U,40118,999,63933,-.99846E-5,-.131E-5,0
YAOGAN-21,2014-053A,2026-06-17T21:12:34.799040,15.26381452,.0009996,97.1469,209.0891,91.4975,268.7410,0,U,40143,999,65506,.21587E-3,.5553E-4,0
YAOGAN-22,2014-063A,2026-06-17T09:55:55.884000,13.15531084,.0006345,100.7724,319.6908,184.7554,175.3498,0,U,40275,999,55984,-.44091034E-4,-.63E-6,0
ASNARO,2014-070A,2026-06-17T19:37:42.266784,15.19440274,.0005636,97.3451,244.9150,163.6950,196.4467,0,U,40298,999,64410,.24941E-3,.5221E-4,0
YAOGAN-24,2014-072A,2026-06-17T19:51:52.480800,14.76225657,.0012515,98.1494,306.1710,261.3832,98.5960,0,U,40310,999,62381,.16241E-3,.1072E-4,0
CBERS 4,2014-079A,2026-06-17T20:58:02.146944,14.35508554,.0001823,98.3530,225.6836,62.5883,297.5489,0,U,40336,999,60405,-.13771E-4,-.82E-6,0
YAOGAN-26,2014-088A,2026-06-17T20:16:41.576160,15.47364417,.0005947,97.0642,169.0377,66.3158,293.8717,0,U,40362,999,63780,.20938E-3,.10625E-3,0
SMAP,2015-003A,2026-06-17T19:58:07.576032,14.63367079,.0001335,98.1276,175.9173,96.9137,263.2217,0,U,40376,999,60771,.7142E-4,.322E-5,0
KOMPSAT-3A,2015-014A,2026-06-17T19:42:47.829888,15.54018936,.0056524,97.6887,160.2301,172.1870,188.0277,0,U,40536,999,62191,.31104E-3,.21494E-3,0
SENTINEL-2A,2015-028A,2026-06-17T20:15:27.044928,14.30814623,.0001104,98.5687,243.6863,89.5991,270.5319,0,U,40697,999,57382,-.28267E-4,-.118E-5,0
GAOFEN-8,2015-030A,2026-06-17T20:44:51.277632,15.45980250,.0008656,97.6898,2.2755,184.2349,175.8828,0,U,40701,999,61155,.43224E-3,.21031E-3,0
CARBONITE 1 (CBNT-1),2015-032D,2026-06-17T20:34:01.964352,14.83590516,.0013131,97.6501,346.8949,295.8017,64.1842,0,U,40718,999,58944,.23269E-3,.187E-4,0
YAOGAN-27,2015-040A,2026-06-17T20:45:17.894880,13.16069955,.0007673,100.1148,155.2181,208.7835,151.2856,0,U,40878,999,51775,.52226E-3,.156E-5,0
GAOFEN-9 01,2015-047A,2026-06-17T20:56:07.888992,14.82885009,.0028435,97.6275,204.5360,135.6462,224.7037,0,U,40894,999,58029,.10445E-3,.801E-5,0
YAOGAN-28,2015-064A,2026-06-17T20:19:27.797664,15.27428680,.0010676,97.3080,307.0945,180.9978,179.1241,0,U,41026,999,59078,.22282E-3,.5918E-4,0
YAOGAN-29,2015-069A,2026-06-17T20:27:35.315712,14.83087269,.0002621,98.0021,197.4863,54.0893,306.0563,0,U,41038,999,57072,.85604E-4,.643E-5,0
KENT RIDGE 1,2015-077B,2026-06-16T21:38:07.994688,15.23131198,.00082355,14.9789,268.1169,234.6113,125.3439,0,U,41167,999,58105,.11247934E-3,.35E-4,0
GAOFEN-4,2015-083A,2026-06-17T20:18:52.188768,1.00268338,.0004384,0.3594,83.7370,115.4365,117.3189,0,U,41194,999,3853,0,-.34E-5,0
JASON-3,2016-002A,2026-06-17T18:42:14.028192,12.87628081,.0008509,66.0403,124.5900,272.7780,87.2264,0,U,41240,999,48732,.44935E-4,-.51E-6,0
SENTINEL-3A,2016-011A,2026-06-17T20:20:43.120320,14.26740180,.0001407,98.6249,236.2219,101.8413,258.2926,0,U,41335,999,53815,.562E-4,.92E-6,0
ZIYUAN 3-02 (ZY 3-02),2016-033A,2026-06-17T20:20:12.594336,15.21486506,.0011154,97.3834,244.6101,287.0767,72.9247,0,U,41556,999,55808,.18148E-3,.4018E-4,0
CARTOSAT-2C,2016-040A,2026-06-17T20:25:19.462944,15.19192942,.0009957,97.4475,228.8208,128.2011,232.0122,0,U,41599,999,55381,.11835E-3,.2424E-4,0
SKYSAT-C1,2016-040C,2026-06-17T14:34:17.849856,15.36307258,.0003439,96.9555,200.3043,57.2822,302.8754,0,U,41601,999,55793,.20341E-3,.7126E-4,0
LAPAN-A3,2016-040E,2026-06-17T20:15:08.711712,15.33108174,.0010828,97.1488,164.9678,23.6658,336.5081,0,U,41603,999,55491,.90496E-4,.2824E-4,0
